{"type": "FeatureCollection", "features": [{"type": "Feature", "geometry": {"type": "Polygon", "coordinates": [[[-72.922892563692, 41.30368209892669], [-72.92285094357811, 41.30367211848401], [-72.92293917850706, 41.30346288556651], [-72.92298079862096, 41.303472866009194], [-72.922892563692, 41.30368209892669]]]}, "properties": {"kind": "lock", "name": "FC Lock 28", "canal": "Farmington Canal", "lock_num": 28, "distance_m": 1123, "snap_err_m": 13, "lift_m": 2.7, "lift_ft": 8.9, "length_ft": 80.0, "width_ft": 12.0, "survey": "derived", "bearing_deg": 17.6}}, {"type": "Feature", "geometry": {"type": "Polygon", "coordinates": [[[-72.9203210451123, 41.30870024458778], [-72.92027874747684, 41.308692032734285], [-72.92035135232129, 41.30847941026124], [-72.92039364995675, 41.30848762211474], [-72.9203210451123, 41.30870024458778]]]}, "properties": {"kind": "lock", "name": "FC Lock 27", "canal": "Farmington Canal", "lock_num": 27, "distance_m": 1722, "snap_err_m": 11, "lift_m": 2.1, "lift_ft": 6.9, "length_ft": 80.0, "width_ft": 12.0, "survey": "derived", "bearing_deg": 14.4}}, {"type": "Feature", "geometry": {"type": "Polygon", "coordinates": [[[-72.92271416653108, 41.31169392737958], [-72.92268451448574, 41.31171810946863], [-72.92247069925503, 41.31156906106962], [-72.92250035130037, 41.31154487898057], [-72.92271416653108, 41.31169392737958]]]}, "properties": {"kind": "lock", "name": "FC Lock 26", "canal": "Farmington Canal", "lock_num": 26, "distance_m": 2139, "snap_err_m": 10, "lift_m": 1.7, "lift_ft": 5.6, "length_ft": 80.0, "width_ft": 12.0, "survey": "derived", "bearing_deg": 312.8}}, {"type": "Feature", "geometry": {"type": "Polygon", "coordinates": [[[-72.9270259040118, 41.31566954082917], [-72.9269872709682, 41.31568491075456], [-72.92685136357335, 41.31549073049478], [-72.92688999661695, 41.31547536056939], [-72.9270259040118, 41.31566954082917]]]}, "properties": {"kind": "lock", "name": "FC Lock 25", "canal": "Farmington Canal", "lock_num": 25, "distance_m": 2710, "snap_err_m": 7, "lift_m": 3.0, "lift_ft": 9.8, "length_ft": 80.0, "width_ft": 12.0, "survey": "derived", "bearing_deg": 332.2}}, {"type": "Feature", "geometry": {"type": "Polygon", "coordinates": [[[-72.92996787002164, 41.32204311418101], [-72.92992631801135, 41.32205328180817], [-72.92983640269716, 41.32184445056772], [-72.92987795470745, 41.32183428294056], [-72.92996787002164, 41.32204311418101]]]}, "properties": {"kind": "lock", "name": "FC Lock 24", "canal": "Farmington Canal", "lock_num": 24, "distance_m": 3459, "snap_err_m": 10, "lift_m": 3.0, "lift_ft": 9.8, "length_ft": 80.0, "width_ft": 12.0, "survey": "derived", "bearing_deg": 342.0}}, {"type": "Feature", "geometry": {"type": "Polygon", "coordinates": [[[-72.93070284451449, 41.32371848252181], [-72.93066141336419, 41.32372892907107], [-72.93056902906619, 41.32352071064152], [-72.93061046021649, 41.323510264092256], [-72.93070284451449, 41.32371848252181]]]}, "properties": {"kind": "lock", "name": "FC Lock 23", "canal": "Farmington Canal", "lock_num": 23, "distance_m": 3655, "snap_err_m": 10, "lift_m": 2.4, "lift_ft": 7.9, "length_ft": 80.0, "width_ft": 12.0, "survey": "derived", "bearing_deg": 341.5}}, {"type": "Feature", "geometry": {"type": "Polygon", "coordinates": [[[-72.93295407943897, 41.328907133222245], [-72.93291278610731, 41.32891789254105], [-72.93281762818928, 41.32871038339134], [-72.93285892152095, 41.328699624072534], [-72.93295407943897, 41.328907133222245]]]}, "properties": {"kind": "lock", "name": "FC Lock 22", "canal": "Farmington Canal", "lock_num": 22, "distance_m": 4261, "snap_err_m": 5, "lift_m": 2.1, "lift_ft": 6.9, "length_ft": 80.0, "width_ft": 12.0, "survey": "derived", "bearing_deg": 340.9}}, {"type": "Feature", "geometry": {"type": "Polygon", "coordinates": [[[-72.9329725941982, 41.345423458066634], [-72.93293086294678, 41.34541368036883], [-72.93301736126243, 41.34520402410119], [-72.93305909251386, 41.345213801799], [-72.9329725941982, 41.345423458066634]]]}, "properties": {"kind": "lock", "name": "FC Lock 21", "canal": "Farmington Canal", "lock_num": 21, "distance_m": 6132, "snap_err_m": 15, "lift_m": 2.4, "lift_ft": 7.9, "length_ft": 80.0, "width_ft": 12.0, "survey": "derived", "bearing_deg": 17.3}}, {"type": "Feature", "geometry": {"type": "Polygon", "coordinates": [[[-72.92686664337602, 41.356556510922026], [-72.9268297534706, 41.35653884659533], [-72.9269860477256, 41.35635354502602], [-72.92702293763102, 41.356371209352716], [-72.92686664337602, 41.356556510922026]]]}, "properties": {"kind": "lock", "name": "FC Lock 20", "canal": "Farmington Canal", "lock_num": 20, "distance_m": 7482, "snap_err_m": 10, "lift_m": 1.5, "lift_ft": 4.9, "length_ft": 80.0, "width_ft": 12.0, "survey": "derived", "bearing_deg": 32.4}}, {"type": "Feature", "geometry": {"type": "Polygon", "coordinates": [[[-72.91960434634264, 41.36912417102427], [-72.91956464636813, 41.3691103801654], [-72.91968669185233, 41.36891100213151], [-72.91972639182684, 41.36892479299038], [-72.91960434634264, 41.36912417102427]]]}, "properties": {"kind": "lock", "name": "FC Lock 19", "canal": "Farmington Canal", "lock_num": 19, "distance_m": 9006, "snap_err_m": 13, "lift_m": 3.0, "lift_ft": 9.8, "length_ft": 80.0, "width_ft": 12.0, "survey": "derived", "bearing_deg": 24.8}}, {"type": "Feature", "geometry": {"type": "Polygon", "coordinates": [[[-72.90017957201832, 41.38855438169783], [-72.90013964773388, 41.38854094334985], [-72.9002586093919, 41.38834049914847], [-72.90029853367633, 41.38835393749645], [-72.90017957201832, 41.38855438169783]]]}, "properties": {"kind": "lock", "name": "FC Lock 18", "canal": "Farmington Canal", "lock_num": 18, "distance_m": 11884, "snap_err_m": 9, "lift_m": 4.4, "lift_ft": 14.4, "length_ft": 80.0, "width_ft": 12.0, "survey": "derived", "bearing_deg": 24.1}}, {"type": "Feature", "geometry": {"type": "Polygon", "coordinates": [[[-72.89775921187316, 41.39777943034318], [-72.89771583074453, 41.3977836217093], [-72.89767872178106, 41.39756585318705], [-72.8977221029097, 41.39756166182092], [-72.89775921187316, 41.39777943034318]]]}, "properties": {"kind": "lock", "name": "FC Lock 17", "canal": "Farmington Canal", "lock_num": 17, "distance_m": 12955, "snap_err_m": 6, "lift_m": 1.8, "lift_ft": 5.9, "length_ft": 80.0, "width_ft": 12.0, "survey": "derived", "bearing_deg": 352.7}}, {"type": "Feature", "geometry": {"type": "Polygon", "coordinates": [[[-72.90132112410745, 41.410748935898575], [-72.9012786847025, 41.410756923179555], [-72.90120795374244, 41.4105439248599], [-72.9012503931474, 41.41053593757892], [-72.90132112410745, 41.410748935898575]]]}, "properties": {"kind": "lock", "name": "FC Lock 16", "canal": "Farmington Canal", "lock_num": 16, "distance_m": 14432, "snap_err_m": 2, "lift_m": 3.6, "lift_ft": 11.8, "length_ft": 80.0, "width_ft": 12.0, "survey": "derived", "bearing_deg": 346.0}}, {"type": "Feature", "geometry": {"type": "Polygon", "coordinates": [[[-72.90879038420204, 41.430100314446875], [-72.90874914212549, 41.43008930747164], [-72.9088466430924, 41.42988238051409], [-72.90888788516895, 41.42989338748932], [-72.90879038420204, 41.430100314446875]]]}, "properties": {"kind": "lock", "name": "FC Lock 15", "canal": "Farmington Canal", "lock_num": 15, "distance_m": 16749, "snap_err_m": 4, "lift_m": -0.4, "lift_ft": -1.3, "length_ft": 80.0, "width_ft": 12.0, "survey": "derived", "bearing_deg": 19.5}}, {"type": "Feature", "geometry": {"type": "Polygon", "coordinates": [[[-72.90931148532282, 41.43595373949381], [-72.90926773897974, 41.43595284742902], [-72.9092756417031, 41.43573337556397], [-72.90931938804619, 41.43573426762876], [-72.90931148532282, 41.43595373949381]]]}, "properties": {"kind": "lock", "name": "FC Lock 14", "canal": "Farmington Canal", "lock_num": 14, "distance_m": 17433, "snap_err_m": 11, "lift_m": 2.6, "lift_ft": 8.5, "length_ft": 80.0, "width_ft": 12.0, "survey": "derived", "bearing_deg": 1.6}}, {"type": "Feature", "geometry": {"type": "Polygon", "coordinates": [[[-72.91776714015411, 41.458450261191345], [-72.91772533234972, 41.45846002858657], [-72.91763877360849, 41.458250355508255], [-72.91768058141288, 41.45824058811303], [-72.91776714015411, 41.458450261191345]]]}, "properties": {"kind": "lock", "name": "FC Lock 13", "canal": "Farmington Canal", "lock_num": 13, "distance_m": 20091, "snap_err_m": 9, "lift_m": 3.3, "lift_ft": 10.8, "length_ft": 80.0, "width_ft": 12.0, "survey": "derived", "bearing_deg": 342.7}}, {"type": "Feature", "geometry": {"type": "Polygon", "coordinates": [[[-72.92358784548867, 41.47532571756292], [-72.92354834357121, 41.47531150619646], [-72.923674317843, 41.475113449449815], [-72.92371381976045, 41.47512766081627], [-72.92358784548867, 41.47532571756292]]]}, "properties": {"kind": "lock", "name": "FC Lock 12", "canal": "Farmington Canal", "lock_num": 12, "distance_m": 22096, "snap_err_m": 7, "lift_m": 2.4, "lift_ft": 7.9, "length_ft": 80.0, "width_ft": 12.0, "source": "position corrected ~15 ft south: a bridge and narrowing sit just north of the recorded point", "offset_ft": -15.0, "survey": "derived", "bearing_deg": 25.6}}, {"type": "Feature", "geometry": {"type": "Polygon", "coordinates": [[[-72.91435811521643, 41.499498096783356], [-72.91431431102131, 41.499497879155285], [-72.914316240874, 41.49927833395728], [-72.91436004506912, 41.49927855158535], [-72.91435811521643, 41.499498096783356]]]}, "properties": {"kind": "lock", "name": "FC Lock 11", "canal": "Farmington Canal", "lock_num": 11, "distance_m": 24988, "snap_err_m": 4, "lift_m": 2.4, "lift_ft": 7.9, "length_ft": 80.0, "width_ft": 12.0, "survey": "derived", "bearing_deg": 0.4}}, {"type": "Feature", "geometry": {"type": "Polygon", "coordinates": [[[-72.91437192361656, 41.50317011100766], [-72.91432895378479, 41.50317652085681], [-72.9142721101421, 41.50296116978235], [-72.91431507997386, 41.5029547599332], [-72.91437192361656, 41.50317011100766]]]}, "properties": {"kind": "lock", "name": "FC Lock 10", "canal": "Farmington Canal", "lock_num": 10, "distance_m": 25398, "snap_err_m": 7, "lift_m": 2.4, "lift_ft": 7.9, "length_ft": 80.0, "width_ft": 12.0, "survey": "derived", "bearing_deg": 348.8}}, {"type": "Feature", "geometry": {"type": "Polygon", "coordinates": [[[-72.90309385921286, 41.56570624441232], [-72.90305025772493, 41.56570274440465], [-72.90308132663982, 41.56548444039996], [-72.90312492812775, 41.56548794040763], [-72.90309385921286, 41.56570624441232]]]}, "properties": {"kind": "lock", "name": "FC Lock 9", "canal": "Farmington Canal", "lock_num": 9, "distance_m": 33682, "snap_err_m": 5, "lift_m": 3.1, "lift_ft": 10.2, "length_ft": 80.0, "width_ft": 12.0, "survey": "derived", "bearing_deg": 6.1}}, {"type": "Feature", "geometry": {"type": "Polygon", "coordinates": [[[-72.9032581504334, 41.59077009575247], [-72.9032154120787, 41.590777517298235], [-72.90314950662997, 41.59056361850731], [-72.90319224498468, 41.59055619696154], [-72.9032581504334, 41.59077009575247]]]}, "properties": {"kind": "lock", "name": "FC Lock 8", "canal": "Farmington Canal", "lock_num": 8, "distance_m": 36757, "snap_err_m": 3, "lift_m": 1.4, "lift_ft": 4.6, "length_ft": 80.0, "width_ft": 12.0, "survey": "derived", "bearing_deg": 347.0}}, {"type": "Feature", "geometry": {"type": "Polygon", "coordinates": [[[-72.90383828884882, 41.603073765059136], [-72.90380275210957, 41.60305445060724], [-72.90397430292404, 41.602876628946646], [-72.90400983966329, 41.60289594339854], [-72.90383828884882, 41.603073765059136]]]}, "properties": {"kind": "lock", "name": "FC Lock 7", "canal": "Farmington Canal", "lock_num": 7, "distance_m": 38190, "snap_err_m": 10, "lift_m": 3.1, "lift_ft": 10.2, "length_ft": 80.0, "width_ft": 12.0, "survey": "derived", "bearing_deg": 35.9}}, {"type": "Feature", "geometry": {"type": "Polygon", "coordinates": [[[-72.77856183616055, 41.94388095707486], [-72.77851779582105, 41.9438827803474], [-72.77850151460925, 41.9436635841545], [-72.77854555494875, 41.94366176088196], [-72.77856183616055, 41.94388095707486]]]}, "properties": {"kind": "lock", "name": "FC Lock 6", "canal": "Farmington Canal", "lock_num": 6, "distance_m": 83105, "snap_err_m": 12, "lift_m": 3.7, "lift_ft": 12.1, "length_ft": 80.0, "width_ft": 12.0, "survey": "derived", "bearing_deg": 356.8}}, {"type": "Feature", "geometry": {"type": "Polygon", "coordinates": [[[-72.7785585557779, 41.94420058324734], [-72.77851454000867, 41.94419845229467], [-72.77853356879616, 41.943979379491935], [-72.7785775845654, 41.9439815104446], [-72.7785585557779, 41.94420058324734]]]}, "properties": {"kind": "lock", "name": "FC Lock 5", "canal": "Farmington Canal", "lock_num": 5, "distance_m": 83140, "snap_err_m": 0, "lift_m": 0.3, "lift_ft": 1.0, "length_ft": 80.0, "width_ft": 12.0, "survey": "derived", "bearing_deg": 3.7}}, {"type": "Feature", "geometry": {"type": "Polygon", "coordinates": [[[-72.77833751622718, 41.944812373894415], [-72.7782948531827, 41.94480401247662], [-72.77836951893376, 41.94459167443272], [-72.77841218197824, 41.94460003585052], [-72.77833751622718, 41.944812373894415]]]}, "properties": {"kind": "lock", "name": "FC Lock 4", "canal": "Farmington Canal", "lock_num": 4, "distance_m": 83210, "snap_err_m": 1, "lift_m": 1.5, "lift_ft": 4.9, "length_ft": 80.0, "width_ft": 12.0, "survey": "derived", "bearing_deg": 14.7}}, {"type": "Feature", "geometry": {"type": "Polygon", "coordinates": [[[-72.77804200228964, 41.94565879496097], [-72.7779993464709, 41.94565041142231], [-72.77807421075802, 41.94543811218107], [-72.77811686657675, 41.945446495719736], [-72.77804200228964, 41.94565879496097]]]}, "properties": {"kind": "lock", "name": "FC Lock 3", "canal": "Farmington Canal", "lock_num": 3, "distance_m": 83308, "snap_err_m": 9, "lift_m": 2.4, "lift_ft": 7.9, "length_ft": 80.0, "width_ft": 12.0, "survey": "derived", "bearing_deg": 14.7}}, {"type": "Feature", "geometry": {"type": "Polygon", "coordinates": [[[-72.77776959033466, 41.946408190868965], [-72.7777270000223, 41.94639962234056], [-72.7778035171583, 41.94618765163676], [-72.77784610747067, 41.94619622016517], [-72.77776959033466, 41.946408190868965]]]}, "properties": {"kind": "lock", "name": "FC Lock 2", "canal": "Farmington Canal", "lock_num": 2, "distance_m": 83394, "snap_err_m": 7, "lift_m": 1.0, "lift_ft": 3.3, "length_ft": 80.0, "width_ft": 12.0, "survey": "derived", "bearing_deg": 15.1}}, {"type": "Feature", "geometry": {"type": "Polygon", "coordinates": [[[-72.77761165961441, 41.94687358188653], [-72.7775688648368, 41.94686560037789], [-72.77764014039805, 41.94665261362233], [-72.77768293517566, 41.946660595130965], [-72.77761165961441, 41.94687358188653]]]}, "properties": {"kind": "lock", "name": "FC Lock 1", "canal": "Farmington Canal", "lock_num": 1, "distance_m": 83447, "snap_err_m": 5, "lift_m": 3.2, "lift_ft": 10.5, "length_ft": 80.0, "width_ft": 12.0, "survey": "derived", "bearing_deg": 14.0}}, {"type": "Feature", "geometry": {"type": "Polygon", "coordinates": [[[-72.75509863274951, 42.048467465166304], [-72.75505539074562, 42.04846071476046], [-72.75511576947889, 42.04824584802753], [-72.75515901148277, 42.04825259843337], [-72.75509863274951, 42.048467465166304]]]}, "properties": {"kind": "lock", "name": "HHC Lock 1", "canal": "Hampshire & Hampden Canal", "lock_num": 1, "distance_m": 96092, "snap_err_m": 9, "lift_m": -2.9, "lift_ft": -9.5, "length_ft": 80.0, "width_ft": 12.0, "survey": "derived", "bearing_deg": 11.8}}, {"type": "Feature", "geometry": {"type": "Polygon", "coordinates": [[[-72.75376037520097, 42.04957536841411], [-72.75374803724924, 42.04954374914313], [-72.75403085980285, 42.04948244379514], [-72.75404319775458, 42.04951406306612], [-72.75376037520097, 42.04957536841411]]]}, "properties": {"kind": "lock", "name": "HHC Lock 2", "canal": "Hampshire & Hampden Canal", "lock_num": 2, "distance_m": 96276, "snap_err_m": 3, "lift_m": -2.1, "lift_ft": -6.9, "length_ft": 80.0, "width_ft": 12.0, "survey": "derived", "bearing_deg": 73.8}}, {"type": "Feature", "geometry": {"type": "Polygon", "coordinates": [[[-72.7526653534591, 42.0498039383002], [-72.75265348177825, 42.049772220016315], [-72.75293719099864, 42.04971323171016], [-72.75294906267948, 42.04974494999404], [-72.7526653534591, 42.0498039383002]]]}, "properties": {"kind": "lock", "name": "HHC Lock 3", "canal": "Hampshire & Hampden Canal", "lock_num": 3, "distance_m": 96370, "snap_err_m": 7, "lift_m": -1.6, "lift_ft": -5.2, "length_ft": 80.0, "width_ft": 12.0, "survey": "derived", "bearing_deg": 74.4}}, {"type": "Feature", "geometry": {"type": "Polygon", "coordinates": [[[-72.75153966574885, 42.05000023001957], [-72.75153066312627, 42.049967991550865], [-72.75181902615145, 42.049923259237666], [-72.75182802877403, 42.04995549770637], [-72.75153966574885, 42.05000023001957]]]}, "properties": {"kind": "lock", "name": "HHC Lock 4", "canal": "Hampshire & Hampden Canal", "lock_num": 4, "distance_m": 96465, "snap_err_m": 4, "lift_m": -2.5, "lift_ft": -8.2, "length_ft": 80.0, "width_ft": 12.0, "survey": "derived", "bearing_deg": 78.2}}, {"type": "Feature", "geometry": {"type": "Polygon", "coordinates": [[[-72.75039695116978, 42.05014561218075], [-72.75038843659748, 42.050113300137326], [-72.75067745839728, 42.0500709929511], [-72.75068597296958, 42.05010330499452], [-72.75039695116978, 42.05014561218075]]]}, "properties": {"kind": "lock", "name": "HHC Lock 5", "canal": "Hampshire & Hampden Canal", "lock_num": 5, "distance_m": 96561, "snap_err_m": 2, "lift_m": -5.6, "lift_ft": -18.4, "length_ft": 80.0, "width_ft": 12.0, "survey": "derived", "bearing_deg": 78.9}}, {"type": "Feature", "geometry": {"type": "Polygon", "coordinates": [[[-72.7486075089579, 42.05107355889584], [-72.74857041942883, 42.051055664891884], [-72.74873047826632, 42.05087137705536], [-72.7487675677954, 42.05088927105931], [-72.7486075089579, 42.05107355889584]]]}, "properties": {"kind": "lock", "name": "HHC Lock 6", "canal": "Hampshire & Hampden Canal", "lock_num": 6, "distance_m": 96750, "snap_err_m": 10, "lift_m": -0.6, "lift_ft": -2.0, "length_ft": 80.0, "width_ft": 12.0, "survey": "derived", "bearing_deg": 32.9}}, {"type": "Feature", "geometry": {"type": "Polygon", "coordinates": [[[-72.7453263765297, 42.0544904703422], [-72.74528387180793, 42.05448147712634], [-72.7453643189503, 42.05427029407734], [-72.74540682367207, 42.054279287293205], [-72.7453263765297, 42.0544904703422]]]}, "properties": {"kind": "lock", "name": "HHC Lock 7", "canal": "Hampshire & Hampden Canal", "lock_num": 7, "distance_m": 97226, "snap_err_m": 7, "lift_m": -2.9, "lift_ft": -9.5, "length_ft": 80.0, "width_ft": 12.0, "survey": "derived", "bearing_deg": 15.8}}, {"type": "Feature", "geometry": {"type": "Polygon", "coordinates": [[[-72.72741872388727, 42.08274934017076], [-72.727374551494, 42.08274809416445], [-72.72738570241154, 42.082528723753406], [-72.72742987480481, 42.08252996975971], [-72.72741872388727, 42.08274934017076]]]}, "properties": {"kind": "lock", "name": "HHC Lock 8", "canal": "Hampshire & Hampden Canal", "lock_num": 8, "distance_m": 100889, "snap_err_m": 14, "lift_m": -4.1, "lift_ft": -13.5, "length_ft": 80.0, "width_ft": 12.0, "survey": "derived", "bearing_deg": 2.2}}, {"type": "Feature", "geometry": {"type": "Polygon", "coordinates": [[[-72.72647176519202, 42.086443937880375], [-72.72642871331888, 42.08643646067831], [-72.72649563316837, 42.086222667572926], [-72.7265386850415, 42.086230144774994], [-72.72647176519202, 42.086443937880375]]]}, "properties": {"kind": "lock", "name": "HHC Lock 9", "canal": "Hampshire & Hampden Canal", "lock_num": 9, "distance_m": 101319, "snap_err_m": 5, "lift_m": -2.1, "lift_ft": -6.9, "length_ft": 80.0, "width_ft": 12.0, "survey": "derived", "bearing_deg": 13.1}}, {"type": "Feature", "geometry": {"type": "Polygon", "coordinates": [[[-72.74261650793977, 42.142762960712915], [-72.7425874159415, 42.14273815061542], [-72.74280966158861, 42.14259381076785], [-72.74283875358688, 42.14261862086534], [-72.74261650793977, 42.142762960712915]]]}, "properties": {"kind": "lock", "name": "HHC Lock 10", "canal": "Hampshire & Hampden Canal", "lock_num": 10, "distance_m": 110352, "snap_err_m": 15, "lift_m": 3.5, "lift_ft": 11.5, "length_ft": 80.0, "width_ft": 12.0, "survey": "derived", "bearing_deg": 48.9}}, {"type": "Feature", "geometry": {"type": "Polygon", "coordinates": [[[-72.7378946078352, 42.14418676885343], [-72.73786794385744, 42.14416049073745], [-72.73810334517701, 42.14402820051325], [-72.73813000915477, 42.14405447862923], [-72.7378946078352, 42.14418676885343]]]}, "properties": {"kind": "lock", "name": "HHC Lock 11", "canal": "Hampshire & Hampden Canal", "lock_num": 11, "distance_m": 110779, "snap_err_m": 26, "lift_m": 6.5, "lift_ft": 21.3, "length_ft": 80.0, "width_ft": 12.0, "survey": "derived", "bearing_deg": 52.9}}, {"type": "Feature", "geometry": {"type": "Polygon", "coordinates": [[[-72.73753714476732, 42.14793011145511], [-72.73749710592365, 42.1479441305662], [-72.73737151422799, 42.1477454942916], [-72.73741155307165, 42.14773147518051], [-72.73753714476732, 42.14793011145511]]]}, "properties": {"kind": "lock", "name": "HHC Lock 12", "canal": "Hampshire & Hampden Canal", "lock_num": 12, "distance_m": 111255, "snap_err_m": 14, "lift_m": 5.8, "lift_ft": 19.0, "length_ft": 80.0, "width_ft": 12.0, "survey": "derived", "bearing_deg": 334.8}}, {"type": "Feature", "geometry": {"type": "Polygon", "coordinates": [[[-72.73945562961894, 42.150516983684085], [-72.73941704228926, 42.150533102109854], [-72.73927263770473, 42.15034167482057], [-72.73931122503441, 42.1503255563948], [-72.73945562961894, 42.150516983684085]]]}, "properties": {"kind": "lock", "name": "HHC Lock 13", "canal": "Hampshire & Hampden Canal", "lock_num": 13, "distance_m": 111583, "snap_err_m": 3, "lift_m": 0.1, "lift_ft": 0.3, "length_ft": 80.0, "width_ft": 12.0, "survey": "derived", "bearing_deg": 330.7}}, {"type": "Feature", "geometry": {"type": "Polygon", "coordinates": [[[-72.74015573484061, 42.15131856491315], [-72.74011965087598, 42.151337626157535], [-72.73994887945156, 42.151158620078924], [-72.73998496341619, 42.15113955883454], [-72.74015573484061, 42.15131856491315]]]}, "properties": {"kind": "lock", "name": "HHC Lock 14", "canal": "Hampshire & Hampden Canal", "lock_num": 14, "distance_m": 111690, "snap_err_m": 3, "lift_m": 0.8, "lift_ft": 2.6, "length_ft": 80.0, "width_ft": 12.0, "survey": "derived", "bearing_deg": 324.6}}, {"type": "Feature", "geometry": {"type": "Polygon", "coordinates": [[[-72.74116897212194, 42.152179389348156], [-72.74114339401564, 42.15220626028885], [-72.74090265139766, 42.15207937368857], [-72.74092822950396, 42.15205250274788], [-72.74116897212194, 42.152179389348156]]]}, "properties": {"kind": "lock", "name": "HHC Lock 15", "canal": "Hampshire & Hampden Canal", "lock_num": 15, "distance_m": 111819, "snap_err_m": 6, "lift_m": 2.5, "lift_ft": 8.2, "length_ft": 80.0, "width_ft": 12.0, "survey": "derived", "bearing_deg": 305.3}}, {"type": "Feature", "geometry": {"type": "Polygon", "coordinates": [[[-72.74299315348621, 42.15313503095772], [-72.74296550786107, 42.15316074340152], [-72.74273514098648, 42.15302360242989], [-72.74276278661162, 42.15299788998609], [-72.74299315348621, 42.15313503095772]]]}, "properties": {"kind": "lock", "name": "HHC Lock 16", "canal": "Hampshire & Hampden Canal", "lock_num": 16, "distance_m": 112004, "snap_err_m": 5, "lift_m": 2.6, "lift_ft": 8.5, "length_ft": 80.0, "width_ft": 12.0, "survey": "derived", "bearing_deg": 308.7}}, {"type": "Feature", "geometry": {"type": "Polygon", "coordinates": [[[-72.74425279506025, 42.15402813778487], [-72.74421512018016, 42.154045412680055], [-72.74406034615825, 42.15385852240066], [-72.74409802103834, 42.153841247505476], [-72.74425279506025, 42.15402813778487]]]}, "properties": {"kind": "lock", "name": "HHC Lock 17", "canal": "Hampshire & Hampden Canal", "lock_num": 17, "distance_m": 112148, "snap_err_m": 0, "lift_m": 2.5, "lift_ft": 8.2, "length_ft": 80.0, "width_ft": 12.0, "survey": "derived", "bearing_deg": 328.4}}, {"type": "Feature", "geometry": {"type": "Polygon", "coordinates": [[[-72.74485971695499, 42.15584824527486], [-72.74481613572497, 42.155853968878866], [-72.74476485375887, 42.15563778571063], [-72.74480843498888, 42.155632062106626], [-72.74485971695499, 42.15584824527486]]]}, "properties": {"kind": "lock", "name": "HHC Lock 18", "canal": "Hampshire & Hampden Canal", "lock_num": 18, "distance_m": 112355, "snap_err_m": 8, "lift_m": 3.0, "lift_ft": 9.8, "length_ft": 80.0, "width_ft": 12.0, "survey": "derived", "bearing_deg": 350.0}}, {"type": "Feature", "geometry": {"type": "Polygon", "coordinates": [[[-72.73436260633993, 42.21275641201489], [-72.7343329359334, 42.21273196257372], [-72.73455219519998, 42.21258491699904], [-72.73458186560651, 42.21260936644021], [-72.73436260633993, 42.21275641201489]]]}, "properties": {"kind": "lock", "name": "HHC Lock 19", "canal": "Hampshire & Hampden Canal", "lock_num": 19, "distance_m": 119456, "snap_err_m": 0, "lift_m": -1.1, "lift_ft": -3.6, "length_ft": 80.0, "width_ft": 12.0, "survey": "derived", "bearing_deg": 47.9}}, {"type": "Feature", "geometry": {"type": "Polygon", "coordinates": [[[-72.7322227348027, 42.21451929531775], [-72.73218893826392, 42.214498009423636], [-72.73237983261139, 42.214330519557485], [-72.73241362915017, 42.2143518054516], [-72.7322227348027, 42.21451929531775]]]}, "properties": {"kind": "lock", "name": "HHC Lock 20", "canal": "Hampshire & Hampden Canal", "lock_num": 20, "distance_m": 119720, "snap_err_m": 4, "lift_m": -3.3, "lift_ft": -10.8, "length_ft": 80.0, "width_ft": 12.0, "survey": "derived", "bearing_deg": 40.3}}, {"type": "Feature", "geometry": {"type": "Polygon", "coordinates": [[[-72.73146491110703, 42.21520684735279], [-72.73143071217804, 42.21518591929722], [-72.73161839944422, 42.21501643711056], [-72.7316525983732, 42.21503736516613], [-72.73146491110703, 42.21520684735279]]]}, "properties": {"kind": "lock", "name": "HHC Lock 21", "canal": "Hampshire & Hampden Canal", "lock_num": 21, "distance_m": 119819, "snap_err_m": 7, "lift_m": -2.2, "lift_ft": -7.2, "length_ft": 80.0, "width_ft": 12.0, "survey": "derived", "bearing_deg": 39.5}}, {"type": "Feature", "geometry": {"type": "Polygon", "coordinates": [[[-72.7304508594013, 42.21611436407972], [-72.73041609380454, 42.216093958023144], [-72.73059910231827, 42.215921670049504], [-72.73063386791503, 42.21594207610608], [-72.7304508594013, 42.21611436407972]]]}, "properties": {"kind": "lock", "name": "HHC Lock 22", "canal": "Hampshire & Hampden Canal", "lock_num": 22, "distance_m": 119950, "snap_err_m": 0, "lift_m": -5.6, "lift_ft": -18.4, "length_ft": 80.0, "width_ft": 12.0, "survey": "derived", "bearing_deg": 38.3}}, {"type": "Feature", "geometry": {"type": "Polygon", "coordinates": [[[-72.7090412165234, 42.24267211978902], [-72.70900798224483, 42.24269390175966], [-72.70881255117307, 42.24252927239867], [-72.70884578545164, 42.24250749042803], [-72.7090412165234, 42.24267211978902]]]}, "properties": {"kind": "lock", "name": "HHC Lock 23", "canal": "Hampshire & Hampden Canal", "lock_num": 23, "distance_m": 123624, "snap_err_m": 13, "lift_m": -4.5, "lift_ft": -14.8, "length_ft": 80.0, "width_ft": 12.0, "survey": "derived", "bearing_deg": 318.6}}, {"type": "Feature", "geometry": {"type": "Polygon", "coordinates": [[[-72.71136620767491, 42.25124091086945], [-72.71132395380492, 42.25125085090649], [-72.7112347581545, 42.25104157063037], [-72.7112770120245, 42.25103163059333], [-72.71136620767491, 42.25124091086945]]]}, "properties": {"kind": "lock", "name": "HHC Lock 24", "canal": "Hampshire & Hampden Canal", "lock_num": 24, "distance_m": 124788, "snap_err_m": 7, "lift_m": -2.3, "lift_ft": -7.5, "length_ft": 80.0, "width_ft": 12.0, "survey": "derived", "bearing_deg": 342.4}}, {"type": "Feature", "geometry": {"type": "Polygon", "coordinates": [[[-72.69881806426513, 42.26345328097783], [-72.69877745417664, 42.26344007730683], [-72.69889595873052, 42.26323897776909], [-72.69893656881901, 42.26325218144009], [-72.69881806426513, 42.26345328097783]]]}, "properties": {"kind": "lock", "name": "HHC Lock 25", "canal": "Hampshire & Hampden Canal", "lock_num": 25, "distance_m": 126645, "snap_err_m": 2, "lift_m": 0.2, "lift_ft": 0.7, "length_ft": 80.0, "width_ft": 12.0, "survey": "derived", "bearing_deg": 23.6}}, {"type": "Feature", "geometry": {"type": "Polygon", "coordinates": [[[-72.69858969959452, 42.26431073664999], [-72.69854580618325, 42.26430612327065], [-72.69858721238899, 42.26408876781403], [-72.69863110580026, 42.26409338119337], [-72.69858969959452, 42.26431073664999]]]}, "properties": {"kind": "lock", "name": "HHC Lock 26", "canal": "Hampshire & Hampden Canal", "lock_num": 26, "distance_m": 126742, "snap_err_m": 1, "lift_m": -2.5, "lift_ft": -8.2, "length_ft": 80.0, "width_ft": 12.0, "survey": "derived", "bearing_deg": 8.1}}, {"type": "Feature", "geometry": {"type": "Polygon", "coordinates": [[[-72.69815971299191, 42.26581343366156], [-72.69811732416557, 42.26580379234006], [-72.69820385945896, 42.26559389247032], [-72.6982462482853, 42.265603533791825], [-72.69815971299191, 42.26581343366156]]]}, "properties": {"kind": "lock", "name": "HHC Lock 27", "canal": "Hampshire & Hampden Canal", "lock_num": 27, "distance_m": 126914, "snap_err_m": 8, "lift_m": -5.5, "lift_ft": -18.0, "length_ft": 80.0, "width_ft": 12.0, "survey": "derived", "bearing_deg": 17.0}}, {"type": "Feature", "geometry": {"type": "Polygon", "coordinates": [[[-72.63653377537044, 42.33911189191551], [-72.63649114894815, 42.33910271958089], [-72.63657357147049, 42.33889189057844], [-72.63661619789278, 42.33890106291305], [-72.63653377537044, 42.33911189191551]]]}, "properties": {"kind": "lock", "name": "HHC Lock 28", "canal": "Hampshire & Hampden Canal", "lock_num": 28, "distance_m": 138721, "snap_err_m": 5, "lift_m": 4.8, "lift_ft": 15.7, "length_ft": 80.0, "width_ft": 12.0, "survey": "derived", "bearing_deg": 16.2}}, {"type": "Feature", "geometry": {"type": "Polygon", "coordinates": [[[-72.63618026041557, 42.34001282839179], [-72.63613763333738, 42.34000365617984], [-72.63622005594702, 42.339792826976236], [-72.63626268302521, 42.33980199918819], [-72.63618026041557, 42.34001282839179]]]}, "properties": {"kind": "lock", "name": "HHC Lock 29", "canal": "Hampshire & Hampden Canal", "lock_num": 29, "distance_m": 138825, "snap_err_m": 4, "lift_m": -9.2, "lift_ft": -30.2, "length_ft": 80.0, "width_ft": 12.0, "survey": "derived", "bearing_deg": 16.2}}, {"type": "Feature", "geometry": {"type": "Polygon", "coordinates": [[[-72.63580550696037, 42.34095055195253], [-72.63576294992171, 42.34094120086414], [-72.63584698119934, 42.340730721231296], [-72.63588953823799, 42.34074007231969], [-72.63580550696037, 42.34095055195253]]]}, "properties": {"kind": "lock", "name": "HHC Lock 30", "canal": "Hampshire & Hampden Canal", "lock_num": 30, "distance_m": 138934, "snap_err_m": 12, "lift_m": -1.1, "lift_ft": -3.6, "length_ft": 80.0, "width_ft": 12.0, "survey": "derived", "bearing_deg": 16.5}}, {"type": "Feature", "geometry": {"type": "Polygon", "coordinates": [[[-72.63532961517937, 42.34213817667321], [-72.635287057275, 42.342128825749136], [-72.6353710886748, 42.341918345839424], [-72.63541364657918, 42.3419276967635], [-72.63532961517937, 42.34213817667321]]]}, "properties": {"kind": "lock", "name": "HHC Lock 31", "canal": "Hampshire & Hampden Canal", "lock_num": 31, "distance_m": 139071, "snap_err_m": 1, "lift_m": -5.2, "lift_ft": -17.1, "length_ft": 80.0, "width_ft": 12.0, "survey": "derived", "bearing_deg": 16.5}}, {"type": "Feature", "geometry": {"type": "Polygon", "coordinates": [[[-72.63495066322353, 42.34308845142891], [-72.634907957901, 42.343079476331866], [-72.63498861318622, 42.34286827054676], [-72.63503131850875, 42.342877245643805], [-72.63495066322353, 42.34308845142891]]]}, "properties": {"kind": "lock", "name": "HHC Lock 32", "canal": "Hampshire & Hampden Canal", "lock_num": 32, "distance_m": 139181, "snap_err_m": 12, "lift_m": -2.1, "lift_ft": -6.9, "length_ft": 80.0, "width_ft": 12.0, "survey": "derived", "bearing_deg": 15.8}}]}